start=new Date('2021-10-23T00:00:00.000Z').valueOf();
sats=[{"TIME_SYSTEM":"UTC","MEAN_ELEMENT_THEORY":"SGP4","ELEMENT_SET_NO":"999","ECCENTRICITY":"0.00037760","REF_FRAME":"TEME","MEAN_ANOMALY":"46.0945","GP_ID":"187935479","RCS_SIZE":"LARGE","NORAD_CAT_ID":"49171","COUNTRY_CODE":"US","TLE_LINE1":"1 49171U 21082AT  21295.91668981 -.00089935  00000-0 -75686-3 0  9993","TLE_LINE2":"2 49171  70.0005  17.7724 0003776 287.6148  46.0945 15.69836545  3668","ARG_OF_PERICENTER":"287.6148","LAUNCH_DATE":"2021-09-14","OBJECT_TYPE":"PAYLOAD","PERIOD":"91.729","INCLINATION":"70.0005","REV_AT_EPOCH":"366","MEAN_MOTION_DDOT":"0.0000000000000","SEMIMAJOR_AXIS":"6737.502","CENTER_NAME":"EARTH","SITE":"AFWTR","DECAY_DATE":null,"CLASSIFICATION_TYPE":"U","PERIAPSIS":"356.823","EPOCH":"2021-10-22T22:00:01.999584","MEAN_MOTION_DOT":"-0.00089935","APOAPSIS":"361.911","OBJECT_NAME":"STARLINK-3107","RA_OF_ASC_NODE":"17.7724","EPHEMERIS_TYPE":"0","OBJECT_ID":"2021-082AT","BSTAR":"-0.00075686000000","FILE":"3179071","MEAN_MOTION":"15.69836545"},{"SEMIMAJOR_AXIS":"6737.730","MEAN_MOTION_DDOT":"0.0000000000000","CENTER_NAME":"EARTH","SITE":"AFWTR","PERIAPSIS":"356.924","DECAY_DATE":null,"CLASSIFICATION_TYPE":"U","MEAN_MOTION_DOT":"-0.00024824","EPOCH":"2021-10-22T22:00:01.999584","APOAPSIS":"362.266","OBJECT_NAME":"STARLINK-3091","RA_OF_ASC_NODE":"17.7592","EPHEMERIS_TYPE":"0","FILE":"3179071","MEAN_MOTION":"15.69756672","BSTAR":"-0.00020669000000","OBJECT_ID":"2021-082AU","MEAN_ELEMENT_THEORY":"SGP4","TIME_SYSTEM":"UTC","ELEMENT_SET_NO":"999","ECCENTRICITY":"0.00039640","MEAN_ANOMALY":"58.6091","REF_FRAME":"TEME","COUNTRY_CODE":"US","RCS_SIZE":"LARGE","GP_ID":"187935034","NORAD_CAT_ID":"49172","TLE_LINE1":"1 49172U 21082AU  21295.91668981 -.00024824  00000-0 -20669-3 0  9991","TLE_LINE2":"2 49172  70.0009  17.7592 0003964 285.8425  58.6091 15.69756672  3666","ARG_OF_PERICENTER":"285.8425","OBJECT_TYPE":"PAYLOAD","LAUNCH_DATE":"2021-09-14","INCLINATION":"70.0009","PERIOD":"91.734","REV_AT_EPOCH":"366"},{"RA_OF_ASC_NODE":"17.4491","OBJECT_ID":"2021-082AV","FILE":"3179071","BSTAR":"-0.00026950000000","MEAN_MOTION":"15.69769557","EPHEMERIS_TYPE":"0","OBJECT_NAME":"STARLINK-3045","APOAPSIS":"362.111","EPOCH":"2021-10-22T22:00:01.999584","MEAN_MOTION_DOT":"-0.00032291","CENTER_NAME":"EARTH","SITE":"AFWTR","DECAY_DATE":null,"CLASSIFICATION_TYPE":"U","PERIAPSIS":"357.005","SEMIMAJOR_AXIS":"6737.693","MEAN_MOTION_DDOT":"0.0000000000000","PERIOD":"91.733","INCLINATION":"70.0006","OBJECT_TYPE":"PAYLOAD","LAUNCH_DATE":"2021-09-14","REV_AT_EPOCH":"366","TLE_LINE2":"2 49173  70.0006  17.4491 0003789 291.1348 319.7929 15.69769557  3665","TLE_LINE1":"1 49173U 21082AV  21295.91668981 -.00032291  00000-0 -26950-3 0  9998","ARG_OF_PERICENTER":"291.1348","ECCENTRICITY":"0.00037890","GP_ID":"187935698","RCS_SIZE":"LARGE","NORAD_CAT_ID":"49173","COUNTRY_CODE":"US","REF_FRAME":"TEME","MEAN_ANOMALY":"319.7929","TIME_SYSTEM":"UTC","ELEMENT_SET_NO":"999","MEAN_ELEMENT_THEORY":"SGP4"},{"MEAN_MOTION_DDOT":"0.0000000000000","SEMIMAJOR_AXIS":"6737.527","PERIAPSIS":"356.827","CLASSIFICATION_TYPE":"U","DECAY_DATE":null,"SITE":"AFWTR","CENTER_NAME":"EARTH","APOAPSIS":"361.957","OBJECT_NAME":"STARLINK-3047","MEAN_MOTION_DOT":"-0.00092557","EPOCH":"2021-10-22T22:00:01.999584","BSTAR":"-0.00077950000000","FILE":"3179071","MEAN_MOTION":"15.69827819","OBJECT_ID":"2021-082AW","EPHEMERIS_TYPE":"0","RA_OF_ASC_NODE":"17.7638","ELEMENT_SET_NO":"999","TIME_SYSTEM":"UTC","MEAN_ELEMENT_THEORY":"SGP4","COUNTRY_CODE":"US","RCS_SIZE":"LARGE","GP_ID":"187935258","NORAD_CAT_ID":"49174","MEAN_ANOMALY":"52.4950","REF_FRAME":"TEME","ECCENTRICITY":"0.00038070","ARG_OF_PERICENTER":"287.6357","TLE_LINE2":"2 49174  70.0018  17.7638 0003807 287.6357  52.4950 15.69827819  3667","TLE_LINE1":"1 49174U 21082AW  21295.91668981 -.00092557  00000-0 -77950-3 0  9996","REV_AT_EPOCH":"366","INCLINATION":"70.0018","PERIOD":"91.730","OBJECT_TYPE":"PAYLOAD","LAUNCH_DATE":"2021-09-14"},{"EPOCH":"2021-10-22T22:00:01.999584","MEAN_MOTION_DOT":"-0.00023792","OBJECT_NAME":"STARLINK-3087","APOAPSIS":"362.182","RA_OF_ASC_NODE":"17.7562","EPHEMERIS_TYPE":"0","OBJECT_ID":"2021-082AX","FILE":"3179071","MEAN_MOTION":"15.69760868","BSTAR":"-0.00019797000000","SEMIMAJOR_AXIS":"6737.718","MEAN_MOTION_DDOT":"0.0000000000000","CENTER_NAME":"EARTH","SITE":"AFWTR","CLASSIFICATION_TYPE":"U","DECAY_DATE":null,"PERIAPSIS":"356.984","TLE_LINE1":"1 49175U 21082AX  21295.91668981 -.00023792  00000-0 -19797-3 0  9997","TLE_LINE2":"2 49175  70.0015  17.7562 0003857 288.2687  58.3448 15.69760868  3666","ARG_OF_PERICENTER":"288.2687","OBJECT_TYPE":"PAYLOAD","LAUNCH_DATE":"2021-09-14","PERIOD":"91.734","INCLINATION":"70.0015","REV_AT_EPOCH":"366","TIME_SYSTEM":"UTC","ELEMENT_SET_NO":"999","MEAN_ELEMENT_THEORY":"SGP4","ECCENTRICITY":"0.00038570","REF_FRAME":"TEME","MEAN_ANOMALY":"58.3448","NORAD_CAT_ID":"49175","GP_ID":"187935145","RCS_SIZE":"LARGE","COUNTRY_CODE":"US"},{"PERIAPSIS":"357.091","CLASSIFICATION_TYPE":"U","DECAY_DATE":null,"SITE":"AFWTR","CENTER_NAME":"EARTH","SEMIMAJOR_AXIS":"6737.680","MEAN_MOTION_DDOT":"0.0000000000000","EPHEMERIS_TYPE":"0","BSTAR":"-0.00019688000000","FILE":"3179034","MEAN_MOTION":"15.69774079","OBJECT_ID":"2021-082AY","RA_OF_ASC_NODE":"17.7467","EPOCH":"2021-10-22T22:00:01.999584","MEAN_MOTION_DOT":"-0.00023674","OBJECT_NAME":"STARLINK-3069","APOAPSIS":"362.000","MEAN_ANOMALY":"64.7391","REF_FRAME":"TEME","COUNTRY_CODE":"US","RCS_SIZE":"LARGE","GP_ID":"187911818","NORAD_CAT_ID":"49176","ECCENTRICITY":"0.00036430","ELEMENT_SET_NO":"999","MEAN_ELEMENT_THEORY":"SGP4","TIME_SYSTEM":"UTC","REV_AT_EPOCH":"619","OBJECT_TYPE":"PAYLOAD","LAUNCH_DATE":"2021-09-14","INCLINATION":"70.0004","PERIOD":"91.733","ARG_OF_PERICENTER":"290.2074","TLE_LINE1":"1 49176U 21082AY  21295.91668981 -.00023674  00000-0 -19688-3 0  9996","TLE_LINE2":"2 49176  70.0004  17.7467 0003643 290.2074  64.7391 15.69774079  6193"},{"OBJECT_ID":"2021-082AZ","BSTAR":"-0.00044373000000","FILE":"3179071","MEAN_MOTION":"15.69695860","EPHEMERIS_TYPE":"0","RA_OF_ASC_NODE":"17.7548","APOAPSIS":"362.280","OBJECT_NAME":"STARLINK-3103","MEAN_MOTION_DOT":"-0.00052740","EPOCH":"2021-10-22T22:00:01.999584","DECAY_DATE":null,"CLASSIFICATION_TYPE":"U","PERIAPSIS":"357.259","SITE":"AFWTR","CENTER_NAME":"EARTH","SEMIMAJOR_AXIS":"6737.904","MEAN_MOTION_DDOT":"0.0000000000000","REV_AT_EPOCH":"366","PERIOD":"91.738","INCLINATION":"69.9998","LAUNCH_DATE":"2021-09-14","OBJECT_TYPE":"PAYLOAD","ARG_OF_PERICENTER":"291.0197","TLE_LINE2":"2 49177  69.9998  17.7548 0003726 291.0197  57.7299 15.69695860  3668","TLE_LINE1":"1 49177U 21082AZ  21295.91668981 -.00052740  00000-0 -44373-3 0  9992","GP_ID":"187935592","NORAD_CAT_ID":"49177","RCS_SIZE":"LARGE","COUNTRY_CODE":"US","REF_FRAME":"TEME","MEAN_ANOMALY":"57.7299","ECCENTRICITY":"0.00037260","TIME_SYSTEM":"UTC","ELEMENT_SET_NO":"999","MEAN_ELEMENT_THEORY":"SGP4"},{"CLASSIFICATION_TYPE":"U","DECAY_DATE":null,"PERIAPSIS":"356.874","SITE":"AFWTR","CENTER_NAME":"EARTH","SEMIMAJOR_AXIS":"6737.573","MEAN_MOTION_DDOT":"0.0000000000000","EPHEMERIS_TYPE":"0","OBJECT_ID":"2021-082BA","BSTAR":"-0.00035437000000","FILE":"3179071","MEAN_MOTION":"15.69811751","RA_OF_ASC_NODE":"17.7495","MEAN_MOTION_DOT":"-0.00042416","EPOCH":"2021-10-22T22:00:01.999584","OBJECT_NAME":"STARLINK-3086","APOAPSIS":"362.001","REF_FRAME":"TEME","MEAN_ANOMALY":"67.1641","NORAD_CAT_ID":"49178","GP_ID":"187934924","RCS_SIZE":"LARGE","COUNTRY_CODE":"US","ECCENTRICITY":"0.00038050","TIME_SYSTEM":"UTC","ELEMENT_SET_NO":"999","MEAN_ELEMENT_THEORY":"SGP4","REV_AT_EPOCH":"366","LAUNCH_DATE":"2021-09-14","OBJECT_TYPE":"PAYLOAD","PERIOD":"91.731","INCLINATION":"70.0001","ARG_OF_PERICENTER":"285.7110","TLE_LINE1":"1 49178U 21082BA  21295.91668981 -.00042416  00000-0 -35437-3 0  9993","TLE_LINE2":"2 49178  70.0001  17.7495 0003805 285.7110  67.1641 15.69811751  3666"},{"OBJECT_TYPE":"PAYLOAD","LAUNCH_DATE":"2021-09-14","PERIOD":"91.730","INCLINATION":"70.0016","REV_AT_EPOCH":"366","TLE_LINE1":"1 49179U 21082BB  21295.91668981 -.00101916  00000-0 -85937-3 0  9995","TLE_LINE2":"2 49179  70.0016  17.7520 0003858 286.8302  63.9664 15.69829875  3660","ARG_OF_PERICENTER":"286.8302","ECCENTRICITY":"0.00038580","REF_FRAME":"TEME","MEAN_ANOMALY":"63.9664","RCS_SIZE":"LARGE","GP_ID":"187935480","NORAD_CAT_ID":"49179","COUNTRY_CODE":"US","TIME_SYSTEM":"UTC","ELEMENT_SET_NO":"999","MEAN_ELEMENT_THEORY":"SGP4","RA_OF_ASC_NODE":"17.7520","EPHEMERIS_TYPE":"0","OBJECT_ID":"2021-082BB","FILE":"3179071","BSTAR":"-0.00085937000000","MEAN_MOTION":"15.69829875","EPOCH":"2021-10-22T22:00:01.999584","MEAN_MOTION_DOT":"-0.00101916","OBJECT_NAME":"STARLINK-3043","APOAPSIS":"361.985","CENTER_NAME":"EARTH","SITE":"AFWTR","DECAY_DATE":null,"CLASSIFICATION_TYPE":"U","PERIAPSIS":"356.786","MEAN_MOTION_DDOT":"0.0000000000000","SEMIMAJOR_AXIS":"6737.521"},{"INCLINATION":"70.0000","PERIOD":"91.737","LAUNCH_DATE":"2021-09-14","OBJECT_TYPE":"PAYLOAD","REV_AT_EPOCH":"366","TLE_LINE2":"2 49180  70.0000  17.7440 0003536 289.4683  67.7735 15.69701415  3660","TLE_LINE1":"1 49180U 21082BC  21295.91668981 -.00023351  00000-0 -19475-3 0  9997","ARG_OF_PERICENTER":"289.4683","ECCENTRICITY":"0.00035360","COUNTRY_CODE":"US","GP_ID":"187935035","RCS_SIZE":"LARGE","NORAD_CAT_ID":"49180","MEAN_ANOMALY":"67.7735","REF_FRAME":"TEME","TIME_SYSTEM":"UTC","MEAN_ELEMENT_THEORY":"SGP4","ELEMENT_SET_NO":"999","RA_OF_ASC_NODE":"17.7440","FILE":"3179071","BSTAR":"-0.00019475000000","MEAN_MOTION":"15.69701415","OBJECT_ID":"2021-082BC","EPHEMERIS_TYPE":"0","APOAPSIS":"362.136","OBJECT_NAME":"STARLINK-3050","MEAN_MOTION_DOT":"-0.00023351","EPOCH":"2021-10-22T22:00:01.999584","SITE":"AFWTR","CENTER_NAME":"EARTH","PERIAPSIS":"357.371","DECAY_DATE":null,"CLASSIFICATION_TYPE":"U","SEMIMAJOR_AXIS":"6737.888","MEAN_MOTION_DDOT":"0.0000000000000"}];
